ONEWEB-0612             
1 54675U 22166AK  23285.13700715 -.00011219  00000+0 -27270-1 0  9992
2 54675  87.9189  78.8814 0001414 110.3989 249.7297 13.21728502 42566
ONEWEB-0615             
1 54676U 22166AL  23285.19374072 -.00008656  00000+0 -21034-1 0  9995
2 54676  87.9203  78.8833 0002115  93.8777 266.2599 13.21751133 42581
ONEWEB-0655             
1 54677U 22166AM  23285.16828636  .00010559  00000+0  25476-1 0  9990
2 54677  87.9192  78.8949 0001138 106.9288 253.1970 13.21906215 42574
ONEWEB-0659             
1 54678U 22166AN  23284.73103050  .00003319  00000+0  79972-2 0  9996
2 54678  87.9172  79.0098 0001796  86.6025 273.5314 13.21854838 42609
ONEWEB-0685             
1 54679U 22166AP  23284.96014885  .00009335  00000+0  22522-1 0  9991
2 54679  87.9197  78.9293 0002280 113.4696 246.6678 13.21903743 42529
ONEWEB-0712             
1 54680U 22166AQ  23284.64234899 -.00000068  00000+0 -21087-3 0  9990
2 54680  87.9088  63.6780 0001760  80.0581 280.0749 13.16597922 43621
ONEWEB-0714             
1 54681U 22166AR  23285.41884679 -.00014364  00000+0 -34940-1 0  9998
2 54681  87.9211  78.8288 0001982  88.0952 272.0409 13.21685500 42705
ONEWEB-0532             
1 55140U 23004A   23285.13927535  .00000035  00000+0  56656-4 0  9998
2 55140  87.9250 200.4245 0001062  94.3801 265.7452 13.17653232 38655
